{
    "links": {
        "self": "http://www.neowsapp.com/rest/v1/neo/3406335?api_key=iIulBulltgU6a56xZRHN4H3l9WmuAYTsLGpBGhQ2"
    },
    "id": "3406335",
    "neo_reference_id": "3406335",
    "name": "(2008 EG85)",
    "designation": "2008 EG85",
    "nasa_jpl_url": "http://ssd.jpl.nasa.gov/sbdb.cgi?sstr=3406335",
    "absolute_magnitude_h": 25.0,
    "estimated_diameter": {
        "kilometers": {
            "estimated_diameter_min": 0.02658,
            "estimated_diameter_max": 0.0594346868
        },
        "meters": {
            "estimated_diameter_min": 26.58,
            "estimated_diameter_max": 59.4346868419
        },
        "miles": {
            "estimated_diameter_min": 0.0165160412,
            "estimated_diameter_max": 0.0369309908
        },
        "feet": {
            "estimated_diameter_min": 87.2047272,
            "estimated_diameter_max": 194.9956979785
        }
    },
    "is_potentially_hazardous_asteroid": false,
    "close_approach_data": [
        {
            "close_approach_date": "2008-03-08",
            "close_approach_date_full": "2008-Mar-08 10:28",
            "epoch_date_close_approach": 1204972080000,
            "relative_velocity": {
                "kilometers_per_second": "13.0633333536",
                "kilometers_per_hour": "47028.00007292",
                "miles_per_hour": "29221.370378643"
            },
            "miss_distance": {
                "astronomical": "0.0449400934",
                "lunar": "17.4816963326",
                "kilometers": "6722942.250241058",
                "miles": "4177442.6037122804"
            },
            "orbiting_body": "Earth"
        }
    ],
    "orbital_data": {
        "orbit_id": "6",
        "orbit_determination_date": "2017-04-06 09:03:58",
        "first_observation_date": "2008-03-13",
        "last_observation_date": "2008-03-15",
        "data_arc_in_days": 2,
        "observations_used": 8,
        "orbit_uncertainty": "9",
        "minimum_orbit_intersection": ".0421118",
        "jupiter_tisserand_invariant": "4.226",
        "epoch_osculation": "2454540.5",
        "eccentricity": ".3953864357626786",
        "semi_major_axis": "1.589026618429454",
        "inclination": "20.48572665485709",
        "ascending_node_longitude": "172.0614423434772",
        "orbital_period": "731.6361998597732",
        "perihelion_distance": ".9607470474366104",
        "perihelion_argument": "316.438714541181",
        "aphelion_distance": "2.217306189422298",
        "perihelion_time": "2454499.784849408597",
        "mean_anomaly": "20.03380124673212",
        "mean_motion": ".4920478238624583",
        "equinox": "J2000",
        "orbit_class": {
            "orbit_class_type": "APO",
            "orbit_class_description": "Near-Earth asteroid orbits which cross the Earth’s orbit similar to that of 1862 Apollo",
            "orbit_class_range": "a (semi-major axis) > 1.0 AU; q (perihelion) < 1.017 AU"
        }
    },
    "is_sentry_object": false
}